CANX-4                  
1 40055U 14034C   26068.57587242  .00001439  00000+0  19272-3 0  9998
2 40055  98.3276 300.1593 0012356 336.8970  23.1684 14.81061360629781
KUIPER-00058            
1 64518U 25134U   26068.63835206  .00000426  00000+0  84835-4 0  9997
2 64518  51.9027 225.7628 0000628 103.1746 256.9286 14.79975539 40179
